[{"OBJECT_NAME":"STARLINK-35323","OBJECT_ID":"2025-235P","EPOCH":"2026-03-09T19:25:15.541824","MEAN_MOTION":15.30182085,"ECCENTRICITY":0.00011974,"INCLINATION":53.1599,"RA_OF_ASC_NODE":244.4353,"ARG_OF_PERICENTER":81.9408,"MEAN_ANOMALY":278.1728,"EPHEMERIS_TYPE":0,"CLASSIFICATION_TYPE":"U","NORAD_CAT_ID":66071,"ELEMENT_SET_NO":999,"REV_AT_EPOCH":2294,"BSTAR":0.0013711625,"MEAN_MOTION_DOT":0.00040449,"MEAN_MOTION_DDOT":0},{"OBJECT_NAME":"CZ-6A DEB","OBJECT_ID":"2022-151EM","EPOCH":"2026-03-09T21:12:10.844640","MEAN_MOTION":15.1479521,"ECCENTRICITY":0.00732342,"INCLINATION":98.809,"RA_OF_ASC_NODE":212.6624,"ARG_OF_PERICENTER":10.5605,"MEAN_ANOMALY":349.714,"EPHEMERIS_TYPE":0,"CLASSIFICATION_TYPE":"U","NORAD_CAT_ID":54413,"ELEMENT_SET_NO":999,"REV_AT_EPOCH":17915,"BSTAR":0.0020661814,"MEAN_MOTION_DOT":0.00041137,"MEAN_MOTION_DDOT":0}]
